OBJECT_NAME,OBJECT_ID,EPOCH,MEAN_MOTION,ECCENTRICITY,INCLINATION,RA_OF_ASC_NODE,ARG_OF_PERICENTER,MEAN_ANOMALY,EPHEMERIS_TYPE,CLASSIFICATION_TYPE,NORAD_CAT_ID,ELEMENT_SET_NO,REV_AT_EPOCH,BSTAR,MEAN_MOTION_DOT,MEAN_MOTION_DDOT
PERSEUS-M1,2014-033AF,2026-06-27T09:44:35.129760,14.95666560,.0009818,97.9649,122.7056,262.8957,97.1147,0,U,40039,999,65216,.17421E-3,.1878E-4,0
POLYITAN-1,2014-033AJ,2026-06-27T00:52:25.228704,15.33595602,.00088648,98.0939,205.2302,114.7934,245.4230,0,U,40042,999,65510,.62898095E-3,.20395E-3,0
TIGRISAT,2014-033AK,2026-06-27T08:33:27.736128,14.85197362,.0050082,97.7841,328.1357,42.6037,317.9046,0,U,40043,999,64713,.21693E-3,.1846E-4,0
AEROCUBE 6A,2014-033AM,2026-06-27T10:37:41.903040,14.98192728,.0038131,97.7226,345.2841,342.3120,17.6772,0,U,40045,999,64815,.40642E-3,.4834E-4,0
AEROCUBE 6B,2014-033AN,2026-06-27T10:26:40.300224,14.99656739,.0037716,97.7225,345.0895,333.4003,26.5284,0,U,40046,999,64829,.39316E-3,.4856E-4,0
CANX-4,2014-034C,2026-06-27T05:12:17.371872,14.81281845,.00123943,98.3111,53.8976,345.1677,14.9169,0,U,40055,999,64601,.12805565E-3,.942E-5,0
CANX-5,2014-034D,2026-06-27T05:09:51.914016,14.81299077,.00123916,98.3113,53.9400,345.4382,14.6471,0,U,40056,999,63682,.12735879E-3,.937E-5,0
UKUBE-1,2014-037F,2026-06-26T22:51:09.387072,15.13699275,.0003059,98.4236,182.2506,116.7089,243.4453,0,U,40074,999,65003,.50852E-3,.9082E-4,0
BRITE-PL2 (HEWELIUSZ),2014-049B,2026-06-27T13:11:03.384672,14.94631287,.0015327,97.9108,290.6296,76.8594,283.4336,0,U,40119,999,64299,.15572E-3,.1631E-4,0
AEROCUBE 5C,2015-058B,2026-06-27T11:55:26.573376,14.91493336,.013127,64.7663,230.5166,59.2481,302.1481,0,U,40965,999,36719,.19166E-3,.2089E-4,0
AEROCUBE 7,2015-058C,2026-06-27T12:43:58.465056,14.95782317,.0120983,64.7607,212.4168,57.5936,303.6814,0,U,40966,999,36750,.26265E-3,.3221E-4,0
FOX-1A (AO-85),2015-058D,2026-06-27T11:32:12.258816,14.91011402,.0131066,64.7747,246.9939,52.5906,308.7051,0,U,40967,999,11510,.20735E-3,.2243E-4,0
SINOD-D 1,2015-058E,2026-06-27T12:10:26.039712,14.95962094,.0119734,64.7738,226.5930,49.0073,312.1323,0,U,40968,999,11820,.25325E-3,.3105E-4,0
SNAP-3 ALICE,2015-058G,2026-06-27T11:40:39.347328,15.62705712,.0024605,64.7504,68.2684,5.0707,355.0685,0,U,40970,999,11849,.15169E-2,.141197E-2,0
LMRST-SAT,2015-058H,2026-06-27T12:08:14.666784,14.90628082,.0132678,64.7754,243.2739,54.6006,306.7414,0,U,40971,999,11509,.18287E-3,.1944E-4,0
SNAP-3 EDDIE,2015-058J,2026-06-27T09:42:23.164128,15.63853462,.0025236,64.7420,59.2008,8.5567,351.6005,0,U,40972,999,12062,.14788E-2,.144171E-2,0
PROPCUBE 3,2015-058K,2026-06-27T12:22:58.433376,14.94306371,.012462,64.7670,220.2636,55.8399,305.4457,0,U,40973,999,11634,.23247E-3,.2738E-4,0
BISONSAT,2015-058L,2026-06-27T06:08:46.345344,15.16443037,.0080224,64.7571,141.0841,43.1893,317.5485,0,U,40974,999,11714,.76742E-3,.16112E-3,0
SNAP-3 JIMI,2015-058M,2026-06-27T08:58:30.881856,15.02391842,.0106706,64.7629,187.5396,51.2733,309.7864,0,U,40975,999,11575,.42414E-3,.6192E-4,0
PROPCUBE 1 (FLORA),2015-058N,2026-06-27T11:16:58.805184,14.89262146,.0131312,64.7748,263.3656,56.9157,304.4481,0,U,40976,999,11779,.1902E-3,.1945E-4,0
SINOD-D 3,2015-058P,2026-06-27T11:34:35.204160,14.94069970,.0119843,64.7719,243.6697,54.0570,307.1590,0,U,40977,999,11629,.23883E-3,.2767E-4,0
HORYU-4,2016-012D,2026-06-27T05:19:28.760160,16.09051483,.0008993,30.9822,4.7537,331.5188,28.4985,0,U,41340,999,57242,.12904E-2,.1206999E-1,.858E-3
RAVAN,2016-067B,2026-06-26T22:52:15.723264,15.55621120,.0002661,97.9878,68.6594,357.9218,2.2023,0,U,41849,999,52921,.81761E-3,.56284E-3,0
CELTEE 1,2016-067C,2026-06-27T03:35:04.805952,15.19775634,.00014969,98.0666,45.3961,128.5599,231.5768,0,U,41850,999,52739,.25348195E-3,.5347E-4,0
OPTICUBE 04,2016-067D,2026-06-27T13:14:10.610880,15.09700786,.001699,98.0691,31.3758,83.4505,276.8657,0,U,41851,999,52673,.15727E-3,.2471E-4,0
AEROCUBE 8D,2016-067E,2026-06-27T11:03:34.086816,15.24536010,.0005023,98.0675,49.4140,98.8593,261.3211,0,U,41852,999,52763,.33455E-3,.8157E-4,0
AEROCUBE 8C,2016-067F,2026-06-26T21:26:37.504032,15.24778663,.0006051,98.0548,46.0183,42.3441,317.8261,0,U,41853,999,52754,.32979E-3,.8099E-4,0
CORVUS BC2,2017-042X,2026-06-27T10:11:48.023232,15.06357828,.0014653,97.4069,339.3774,79.0317,281.2558,0,U,42846,999,48860,.19625E-3,.2835E-4,0
CORVUS BC1,2017-042Y,2026-06-27T10:02:24.597600,15.06520512,.0013035,97.4096,340.1918,57.8526,302.3965,0,U,42847,999,48863,.20887E-3,.3033E-4,0
MAKERSAT 0,2017-073D,2026-06-27T04:07:21.244224,15.32414292,.01047959,97.4619,60.7702,236.8226,122.2932,0,U,43016,999,46799,.50687114E-3,.18824E-3,0
